[{"OBJECT_NAME":"STARLINK-31241","OBJECT_ID":"2024-038Y","EPOCH":"2026-03-09T06:50:17.272032","MEAN_MOTION":15.27585159,"ECCENTRICITY":0.00016136,"INCLINATION":43.003,"RA_OF_ASC_NODE":26.0795,"ARG_OF_PERICENTER":256.1109,"MEAN_ANOMALY":103.9563,"EPHEMERIS_TYPE":0,"CLASSIFICATION_TYPE":"U","NORAD_CAT_ID":59045,"ELEMENT_SET_NO":999,"REV_AT_EPOCH":11479,"BSTAR":4.3845794e-5,"MEAN_MOTION_DOT":9.45e-6,"MEAN_MOTION_DDOT":0},{"OBJECT_NAME":"OBJECT D","OBJECT_ID":"2025-197D","EPOCH":"2026-03-09T23:30:56.303712","MEAN_MOTION":15.25287442,"ECCENTRICITY":0.00144425,"INCLINATION":97.4091,"RA_OF_ASC_NODE":257.3677,"ARG_OF_PERICENTER":3.398,"MEAN_ANOMALY":356.7353,"EPHEMERIS_TYPE":0,"CLASSIFICATION_TYPE":"U","NORAD_CAT_ID":65491,"ELEMENT_SET_NO":999,"REV_AT_EPOCH":2822,"BSTAR":0.00037200129,"MEAN_MOTION_DOT":9.321e-5,"MEAN_MOTION_DDOT":0}]
